OBJECT_NAME,OBJECT_ID,EPOCH,MEAN_MOTION,ECCENTRICITY,INCLINATION,RA_OF_ASC_NODE,ARG_OF_PERICENTER,MEAN_ANOMALY,EPHEMERIS_TYPE,CLASSIFICATION_TYPE,NORAD_CAT_ID,ELEMENT_SET_NO,REV_AT_EPOCH,BSTAR,MEAN_MOTION_DOT,MEAN_MOTION_DDOT
SZ-21 MODULE,2025-246C,2026-07-06T17:13:41.031264,15.78167802,.0006261,41.4706,185.5326,159.8969,200.2123,0,U,66515,999,3682,.2357E-3,.41467E-3,0
SPACEMOBILE-006,2025-309A,2026-07-06T10:59:32.468352,15.18641781,.0010687,52.9956,243.3614,186.7997,173.2853,0,U,67232,999,2952,.73867E-4,.1228E-4,0
SPACEMOBILE-008,2026-139A,2026-07-06T16:42:51.824160,15.12793552,.0004599,52.9937,173.9927,35.7409,324.3889,0,U,69589,999,293,.52346E-4,.628E-5,0
SPACEMOBILE-009,2026-139B,2026-07-06T16:44:49.563168,15.12686889,.000485,52.9928,173.9969,30.9893,329.1383,0,U,69590,999,293,.5253E-4,.629E-5,0
SPACEMOBILE-010,2026-139C,2026-07-06T16:47:56.575104,15.12518056,.0004729,52.9932,174.0128,22.0048,338.1145,0,U,69591,999,294,.53259E-4,.638E-5,0
